[{"OBJECT_NAME":"STARLINK-36135","OBJECT_ID":"2025-288AD","EPOCH":"2026-03-09T22:18:51.613056","MEAN_MOTION":15.27587448,"ECCENTRICITY":0.00013425,"INCLINATION":43.0036,"RA_OF_ASC_NODE":22.1315,"ARG_OF_PERICENTER":254.0422,"MEAN_ANOMALY":106.0282,"EPHEMERIS_TYPE":0,"CLASSIFICATION_TYPE":"U","NORAD_CAT_ID":66986,"ELEMENT_SET_NO":999,"REV_AT_EPOCH":1532,"BSTAR":0.0008482019,"MEAN_MOTION_DOT":0.00023157,"MEAN_MOTION_DDOT":0},{"OBJECT_NAME":"CZ-2C DEB","OBJECT_ID":"2018-056F","EPOCH":"2026-03-09T10:57:26.102304","MEAN_MOTION":15.27739248,"ECCENTRICITY":0.00119172,"INCLINATION":98.1188,"RA_OF_ASC_NODE":250.032,"ARG_OF_PERICENTER":4.6998,"MEAN_ANOMALY":355.4349,"EPHEMERIS_TYPE":0,"CLASSIFICATION_TYPE":"U","NORAD_CAT_ID":43534,"ELEMENT_SET_NO":999,"REV_AT_EPOCH":41855,"BSTAR":0.00085537155,"MEAN_MOTION_DOT":0.00023193,"MEAN_MOTION_DDOT":0}]
